STARLINK-35540          
1 66151U 25240F   25323.20525497  .00085926  00000+0  15345-2 0  9990
2 66151  53.1594 217.3553 0000954  94.4663 265.6455 15.49337883  5058
STARLINK-35455          
1 66152U 25240G   25323.33336806  .00000744  00000+0  28581-4 0  9992
2 66152  53.1594 216.9594 0001281  94.1237 152.0706 15.39611071  5148
STARLINK-34752          
1 66153U 25240H   25323.33336806 -.00525859  00000+0 -13918-1 0  9999
2 66153  53.1587 216.7998 0001406  90.4264 236.6051 15.39938831  5143
STARLINK-34625          
1 66154U 25240J   25323.20422419  .00062054  00000+0  11139-2 0  9997
2 66154  53.1594 217.3488 0001139  97.6687 262.4452 15.49336203  5108
STARLINK-35580          
1 66155U 25240K   25323.20388211  .00061558  00000+0  11051-2 0  9990
2 66155  53.1595 217.3454 0001414 108.0576 252.0587 15.49336798  5050
STARLINK-35621          
1 66156U 25240L   25323.33336806 -.02045181  00000+0 -51463-1 0  9996
2 66156  53.1583 216.7552 0001156 106.9862 241.5187 15.42961429  5145
STARLINK-35594          
1 66157U 25240M   25323.20319554  .00073850  00000+0  13205-2 0  9997
2 66157  53.1595 217.3407 0001353  84.6910 275.4253 15.49371163  5057
STARLINK-35587          
1 66158U 25240N   25323.33336806 -.00000792  00000+0 -98252-5 0  9996
2 66158  53.1590 216.8990 0000968  91.7177 183.9175 15.39615170  5143
STARLINK-35586          
1 66159U 25240P   25323.20250705  .00065516  00000+0  11750-2 0  9994
2 66159  53.1593 217.3363 0001224  91.1736 268.9413 15.49338154  5052
STARLINK-35636          
1 66160U 25240Q   25323.33336806  .00000981  00000+0  34502-4 0  9994
2 66160  53.1591 216.9020 0001221  90.8585 182.9239 15.39611212  5141
STARLINK-35635          
1 66161U 25240R   25323.33336806  .00000060  00000+0  11497-4 0  9991
2 66161  53.1594 216.9528 0001443  90.3558 157.6714 15.39613452  5144
STARLINK-35633          
1 66162U 25240S   25323.17072789  .00044117  00000+0  79579-3 0  9996
2 66162  53.1606 217.1305 0000938  92.8577 267.2539 15.49345580  5059
