CCSDS_OMM_VERS = 2.0
CREATION_DATE  = 
ORIGINATOR     = 

OBJECT_NAME    = STARLINK-35540
OBJECT_ID      = 2025-240F
CENTER_NAME    = EARTH
REF_FRAME      = TEME
TIME_SYSTEM    = UTC
MEAN_ELEMENT_THEORY = SGP/SGP4

EPOCH          = 2025-11-19T04:55:34.029408
MEAN_MOTION    = 15.49337883
ECCENTRICITY   = .00009542
INCLINATION    = 53.1594
RA_OF_ASC_NODE = 217.3553
ARG_OF_PERICENTER = 94.4663
MEAN_ANOMALY   = 265.6455

EPHEMERIS_TYPE = 0
CLASSIFICATION_TYPE = U
NORAD_CAT_ID   = 66151
ELEMENT_SET_NO = 999
REV_AT_EPOCH   = 505
BSTAR          = .153451E-2
MEAN_MOTION_DOT = .85926E-3
MEAN_MOTION_DDOT = 0

CCSDS_OMM_VERS = 2.0
CREATION_DATE  = 
ORIGINATOR     = 

OBJECT_NAME    = STARLINK-35455
OBJECT_ID      = 2025-240G
CENTER_NAME    = EARTH
REF_FRAME      = TEME
TIME_SYSTEM    = UTC
MEAN_ELEMENT_THEORY = SGP/SGP4

EPOCH          = 2025-11-19T08:00:03.000384
MEAN_MOTION    = 15.39611071
ECCENTRICITY   = .00012813
INCLINATION    = 53.1594
RA_OF_ASC_NODE = 216.9594
ARG_OF_PERICENTER = 94.1237
MEAN_ANOMALY   = 152.0706

EPHEMERIS_TYPE = 0
CLASSIFICATION_TYPE = U
NORAD_CAT_ID   = 66152
ELEMENT_SET_NO = 999
REV_AT_EPOCH   = 514
BSTAR          = .28580674E-4
MEAN_MOTION_DOT = .744E-5
MEAN_MOTION_DDOT = 0

CCSDS_OMM_VERS = 2.0
CREATION_DATE  = 
ORIGINATOR     = 

OBJECT_NAME    = STARLINK-34752
OBJECT_ID      = 2025-240H
CENTER_NAME    = EARTH
REF_FRAME      = TEME
TIME_SYSTEM    = UTC
MEAN_ELEMENT_THEORY = SGP/SGP4

EPOCH          = 2025-11-19T08:00:03.000384
MEAN_MOTION    = 15.39938831
ECCENTRICITY   = .00014061
INCLINATION    = 53.1587
RA_OF_ASC_NODE = 216.7998
ARG_OF_PERICENTER = 90.4264
MEAN_ANOMALY   = 236.6051

EPHEMERIS_TYPE = 0
CLASSIFICATION_TYPE = U
NORAD_CAT_ID   = 66153
ELEMENT_SET_NO = 999
REV_AT_EPOCH   = 514
BSTAR          = -.13917736E-1
MEAN_MOTION_DOT = -.525859E-2
MEAN_MOTION_DDOT = 0

CCSDS_OMM_VERS = 2.0
CREATION_DATE  = 
ORIGINATOR     = 

OBJECT_NAME    = STARLINK-34625
OBJECT_ID      = 2025-240J
CENTER_NAME    = EARTH
REF_FRAME      = TEME
TIME_SYSTEM    = UTC
MEAN_ELEMENT_THEORY = SGP/SGP4

EPOCH          = 2025-11-19T04:54:04.970016
MEAN_MOTION    = 15.49336203
ECCENTRICITY   = .00011394
INCLINATION    = 53.1594
RA_OF_ASC_NODE = 217.3488
ARG_OF_PERICENTER = 97.6687
MEAN_ANOMALY   = 262.4452

EPHEMERIS_TYPE = 0
CLASSIFICATION_TYPE = U
NORAD_CAT_ID   = 66154
ELEMENT_SET_NO = 999
REV_AT_EPOCH   = 510
BSTAR          = .11138805E-2
MEAN_MOTION_DOT = .62054E-3
MEAN_MOTION_DDOT = 0

CCSDS_OMM_VERS = 2.0
CREATION_DATE  = 
ORIGINATOR     = 

OBJECT_NAME    = STARLINK-35580
OBJECT_ID      = 2025-240K
CENTER_NAME    = EARTH
REF_FRAME      = TEME
TIME_SYSTEM    = UTC
MEAN_ELEMENT_THEORY = SGP/SGP4

EPOCH          = 2025-11-19T04:53:35.414304
MEAN_MOTION    = 15.49336798
ECCENTRICITY   = .00014148
INCLINATION    = 53.1595
RA_OF_ASC_NODE = 217.3454
ARG_OF_PERICENTER = 108.0576
MEAN_ANOMALY   = 252.0587

EPHEMERIS_TYPE = 0
CLASSIFICATION_TYPE = U
NORAD_CAT_ID   = 66155
ELEMENT_SET_NO = 999
REV_AT_EPOCH   = 505
BSTAR          = .11050703E-2
MEAN_MOTION_DOT = .61558E-3
MEAN_MOTION_DDOT = 0

CCSDS_OMM_VERS = 2.0
CREATION_DATE  = 
ORIGINATOR     = 

OBJECT_NAME    = STARLINK-35621
OBJECT_ID      = 2025-240L
CENTER_NAME    = EARTH
REF_FRAME      = TEME
TIME_SYSTEM    = UTC
MEAN_ELEMENT_THEORY = SGP/SGP4

EPOCH          = 2025-11-19T08:00:03.000384
MEAN_MOTION    = 15.42961429
ECCENTRICITY   = .00011561
INCLINATION    = 53.1583
RA_OF_ASC_NODE = 216.7552
ARG_OF_PERICENTER = 106.9862
MEAN_ANOMALY   = 241.5187

EPHEMERIS_TYPE = 0
CLASSIFICATION_TYPE = U
NORAD_CAT_ID   = 66156
ELEMENT_SET_NO = 999
REV_AT_EPOCH   = 514
BSTAR          = -.51462527E-1
MEAN_MOTION_DOT = -.2045181E-1
MEAN_MOTION_DDOT = 0

CCSDS_OMM_VERS = 2.0
CREATION_DATE  = 
ORIGINATOR     = 

OBJECT_NAME    = STARLINK-35594
OBJECT_ID      = 2025-240M
CENTER_NAME    = EARTH
REF_FRAME      = TEME
TIME_SYSTEM    = UTC
MEAN_ELEMENT_THEORY = SGP/SGP4

EPOCH          = 2025-11-19T04:52:36.094656
MEAN_MOTION    = 15.49371163
ECCENTRICITY   = .00013531
INCLINATION    = 53.1595
RA_OF_ASC_NODE = 217.3407
ARG_OF_PERICENTER = 84.6910
MEAN_ANOMALY   = 275.4253

EPHEMERIS_TYPE = 0
CLASSIFICATION_TYPE = U
NORAD_CAT_ID   = 66157
ELEMENT_SET_NO = 999
REV_AT_EPOCH   = 505
BSTAR          = .13204715E-2
MEAN_MOTION_DOT = .7385E-3
MEAN_MOTION_DDOT = 0

CCSDS_OMM_VERS = 2.0
CREATION_DATE  = 
ORIGINATOR     = 

OBJECT_NAME    = STARLINK-35587
OBJECT_ID      = 2025-240N
CENTER_NAME    = EARTH
REF_FRAME      = TEME
TIME_SYSTEM    = UTC
MEAN_ELEMENT_THEORY = SGP/SGP4

EPOCH          = 2025-11-19T08:00:03.000384
MEAN_MOTION    = 15.39615170
ECCENTRICITY   = .00009683
INCLINATION    = 53.1590
RA_OF_ASC_NODE = 216.8990
ARG_OF_PERICENTER = 91.7177
MEAN_ANOMALY   = 183.9175

EPHEMERIS_TYPE = 0
CLASSIFICATION_TYPE = U
NORAD_CAT_ID   = 66158
ELEMENT_SET_NO = 999
REV_AT_EPOCH   = 514
BSTAR          = -.982523E-5
MEAN_MOTION_DOT = -.792E-5
MEAN_MOTION_DDOT = 0

CCSDS_OMM_VERS = 2.0
CREATION_DATE  = 
ORIGINATOR     = 

OBJECT_NAME    = STARLINK-35586
OBJECT_ID      = 2025-240P
CENTER_NAME    = EARTH
REF_FRAME      = TEME
TIME_SYSTEM    = UTC
MEAN_ELEMENT_THEORY = SGP/SGP4

EPOCH          = 2025-11-19T04:51:36.609120
MEAN_MOTION    = 15.49338154
ECCENTRICITY   = .00012242
INCLINATION    = 53.1593
RA_OF_ASC_NODE = 217.3363
ARG_OF_PERICENTER = 91.1736
MEAN_ANOMALY   = 268.9413

EPHEMERIS_TYPE = 0
CLASSIFICATION_TYPE = U
NORAD_CAT_ID   = 66159
ELEMENT_SET_NO = 999
REV_AT_EPOCH   = 505
BSTAR          = .11749656E-2
MEAN_MOTION_DOT = .65516E-3
MEAN_MOTION_DDOT = 0

CCSDS_OMM_VERS = 2.0
CREATION_DATE  = 
ORIGINATOR     = 

OBJECT_NAME    = STARLINK-35636
OBJECT_ID      = 2025-240Q
CENTER_NAME    = EARTH
REF_FRAME      = TEME
TIME_SYSTEM    = UTC
MEAN_ELEMENT_THEORY = SGP/SGP4

EPOCH          = 2025-11-19T08:00:03.000384
MEAN_MOTION    = 15.39611212
ECCENTRICITY   = .00012211
INCLINATION    = 53.1591
RA_OF_ASC_NODE = 216.9020
ARG_OF_PERICENTER = 90.8585
MEAN_ANOMALY   = 182.9239

EPHEMERIS_TYPE = 0
CLASSIFICATION_TYPE = U
NORAD_CAT_ID   = 66160
ELEMENT_SET_NO = 999
REV_AT_EPOCH   = 514
BSTAR          = .34501848E-4
MEAN_MOTION_DOT = .981E-5
MEAN_MOTION_DDOT = 0

CCSDS_OMM_VERS = 2.0
CREATION_DATE  = 
ORIGINATOR     = 

OBJECT_NAME    = STARLINK-35635
OBJECT_ID      = 2025-240R
CENTER_NAME    = EARTH
REF_FRAME      = TEME
TIME_SYSTEM    = UTC
MEAN_ELEMENT_THEORY = SGP/SGP4

EPOCH          = 2025-11-19T08:00:03.000384
MEAN_MOTION    = 15.39613452
ECCENTRICITY   = .0001443
INCLINATION    = 53.1594
RA_OF_ASC_NODE = 216.9528
ARG_OF_PERICENTER = 90.3558
MEAN_ANOMALY   = 157.6714

EPHEMERIS_TYPE = 0
CLASSIFICATION_TYPE = U
NORAD_CAT_ID   = 66161
ELEMENT_SET_NO = 999
REV_AT_EPOCH   = 514
BSTAR          = .11497021E-4
MEAN_MOTION_DOT = .6E-6
MEAN_MOTION_DDOT = 0

CCSDS_OMM_VERS = 2.0
CREATION_DATE  = 
ORIGINATOR     = 

OBJECT_NAME    = STARLINK-35633
OBJECT_ID      = 2025-240S
CENTER_NAME    = EARTH
REF_FRAME      = TEME
TIME_SYSTEM    = UTC
MEAN_ELEMENT_THEORY = SGP/SGP4

EPOCH          = 2025-11-19T04:05:50.889696
MEAN_MOTION    = 15.49345580
ECCENTRICITY   = .00009381
INCLINATION    = 53.1606
RA_OF_ASC_NODE = 217.1305
ARG_OF_PERICENTER = 92.8577
MEAN_ANOMALY   = 267.2539

EPHEMERIS_TYPE = 0
CLASSIFICATION_TYPE = U
NORAD_CAT_ID   = 66162
ELEMENT_SET_NO = 999
REV_AT_EPOCH   = 505
BSTAR          = .79578618E-3
MEAN_MOTION_DOT = .44117E-3
MEAN_MOTION_DDOT = 0

